CCSDS_OEM_VERS = 2.0  
CREATION_DATE  = 2024-11-15T14:45:30
ORIGINATOR     = ESOC/OPS-GFA                            
 
 



META_START
OBJECT_NAME          = LISA                                    
OBJECT_ID            = -1000                                   
CENTER_NAME          = SUN                     
REF_FRAME            = EME2000 
TIME_SYSTEM          = TCB
START_TIME           = 2036-12-09T00:00:29.327664            
STOP_TIME            = 2047-09-09T13:05:22.587857            
INTERPOLATION        = HERMITE                                 
INTERPOLATION_DEGREE = 7                                       
META_STOP

2041-03-29T12:18:35.671406  -145413779.089960    30907841.912776    12426258.126864  -6.7687563 -26.7677750 -11.4157586     0.000005812743    -0.000001235707    -0.000000496803
2041-04-01T21:22:45.700312  -147140685.839832    23047496.230855     9075310.756506  -5.0622668 -27.0825633 -11.5412034     0.000005878184    -0.000000920931    -0.000000362630
2041-04-05T06:26:55.729218  -148367053.447628    15108728.571247     5693483.506449  -3.3396308 -27.3050533 -11.6273209     0.000005923368    -0.000000603388    -0.000000227380
2041-04-08T15:31:05.758124  -149089034.661097     7118578.082627     2292293.078971  -1.6067782 -27.4346004 -11.6738664     0.000005948186    -0.000000284195    -0.000000091528
2041-04-12T00:35:15.787030  -149304515.023130     -895775.177357    -1116692.441087   0.1303411 -27.4708858 -11.6807337     0.000005952607     0.000000035533     0.000000044450
2041-04-15T09:20:31.047790  -149015231.576805    -8875997.353510    -4508676.501364   1.8590416 -27.4143179 -11.6481588     0.000005936774     0.000000353444     0.000000179556
2041-04-18T18:05:46.308550  -148224340.841510   -16826359.804082    -7885491.009219   3.5802163 -27.2655442 -11.5764126     0.000005900857     0.000000669690     0.000000313855
2041-04-22T02:51:01.569310  -146934877.600585   -24720142.634660   -11235788.945783   5.2880509 -27.0252054 -11.4657965     0.000005845037     0.000000983194     0.000000446889
2041-04-25T11:36:16.830070  -145151557.065158   -32530857.076097   -14548329.856738   6.9767946 -26.6942539 -11.3167437     0.000005769566     0.000001292893     0.000000578209
2041-04-28T20:11:06.534950  -142886160.084785   -40215900.299942   -17805055.962854   8.6372289 -26.2749473 -11.1302595     0.000005674985     0.000001597093     0.000000707097
2041-05-02T04:45:56.239831  -140143333.754983   -47766585.829038   -21002296.469743  10.2674793 -25.7682185 -10.9067498     0.000005561534     0.000001895451     0.000000833408
2041-05-05T13:20:45.944711  -136932622.533305   -55157813.426304   -24129425.118774  11.8621344 -25.1759061 -10.6470231     0.000005429655     0.000002186980     0.000000956724
2041-05-08T21:55:35.649592  -133265120.243992   -62365056.618839   -27176067.252790  13.4159201 -24.5001312 -10.3520071     0.000005279853     0.000002470720     0.000001076640
2041-05-12T06:30:46.393918  -129153115.526969   -69364944.405215   -30132345.435153  14.9238246 -23.7432299 -10.0227202     0.000005112675     0.000002745768     0.000001192774
2041-05-15T15:05:57.138244  -124610923.803718   -76133804.002513   -32988263.891274  16.3807839 -22.9079064  -9.6603370     0.000004928748     0.000003011212     0.000001304742
2041-05-18T23:41:07.882570  -119654020.755304   -82649300.857362   -35734401.619497  17.7820347 -21.9970713  -9.2661187     0.000004728740     0.000003266200     0.000001412184
2041-05-22T08:16:18.626896  -114299234.438307   -88889979.169966   -38361717.958033  19.1230149 -21.0138764  -8.8414281     0.000004513370     0.000003509923     0.000001514760
2041-05-25T16:56:06.808195  -108559026.601320   -94840869.978547   -40863909.112117  20.4005650 -19.9606645  -8.3872770     0.000004283171     0.000003741826     0.000001612237
2041-05-29T01:35:54.989493  -102457736.138130  -100476319.955885   -43230186.543516  21.6092415 -18.8419499  -7.9056118     0.000004039152     0.000003960945     0.000001704210
2041-06-01T10:15:43.170792   -96015934.258836  -105777856.993171   -45452796.799389  22.7451534 -17.6615445  -7.3980727     0.000003782161     0.000004166601     0.000001790394
2041-06-04T18:55:31.352090   -89255285.364363  -110728142.908587   -47524473.993570  23.8046613 -16.4234509  -6.8663795     0.000003513083     0.000004358163     0.000001870525
2041-06-08T03:49:20.641832   -82177625.813211  -115323754.670522   -49443771.620735  24.7871063 -15.1280328  -6.3106902     0.000003232007     0.000004535538     0.000001944564
2041-06-11T12:43:09.931574   -74825917.802363  -119534795.074770   -51198188.321936  25.6861736 -13.7831730  -5.7343880     0.000002940653     0.000004697616     0.000002012048
2041-06-14T21:36:59.221316   -67224865.511925  -123347521.422536   -52782002.091653  26.4990126 -12.3933982  -5.1394116     0.000002640005     0.000004843913     0.000002072776
2041-06-18T06:30:48.511058   -59399961.120488  -126749527.985120   -54190063.324694  27.2230623 -10.9633682  -4.5277553     0.000002331068     0.000004973999     0.000002126569
2041-06-21T15:52:05.735065   -51331492.046472  -129745429.660460   -55424237.261261  27.8593771  -9.4894760  -3.8978800     0.000002013062     0.000005088091     0.000002173516
2041-06-25T01:13:22.959071   -43090393.255748  -132305011.962365   -56472025.491891  28.4016093  -7.9846663  -3.2553215     0.000001688776     0.000005185079     0.000002213160
2041-06-28T10:34:40.183077   -34704473.408200  -134419957.974011   -57330028.506102  28.8480768  -6.4539896  -2.6022357     0.000001359284     0.000005264690     0.000002245389
2041-07-01T19:55:57.407083   -26201987.667343  -136083439.720560   -57995482.134960  29.1974139  -4.9025681  -1.9408074     0.000001025674     0.000005326710     0.000002270117
2041-07-05T04:46:55.020441   -17665128.013253  -137284060.644220   -58463945.352082  29.4473191  -3.3453519  -1.2774051     0.000000691139     0.000005370756     0.000002287197
2041-07-08T13:37:52.633798    -9069732.292842  -138029824.856575   -58738702.668176  29.5995515  -1.7778803  -0.6101235     0.000000354697     0.000005397167     0.000002296770
2041-07-11T22:28:50.247155     -444294.344262  -138318495.718775   -58818943.469488  29.6537131  -0.2052945   0.0588494     0.000000017426     0.000005405895     0.000002298818
2041-07-15T07:19:47.860512     8182621.497192  -138149333.228588   -58704493.912524  29.6097199   1.3672583   0.7273243    -0.000000319594     0.000005396946     0.000002293351
2041-07-18T15:47:31.240286    16741386.847024  -137527181.877794   -58397757.224772  29.4687136   2.9271527   1.3899381    -0.000000653687     0.000005370548     0.000002280479
2041-07-22T00:15:14.620061    25245321.127931  -136454536.508072   -57899728.704301  29.2312493   4.4768863   2.0477557    -0.000000985420     0.000005326813     0.000002260245
2041-07-25T08:42:57.999835    33666597.774652  -134935065.964059   -57212105.647240  28.8981614   6.0114592   2.6986551    -0.000001313755     0.000005265902     0.000002232726
2041-07-28T17:10:41.379609    41977674.749517  -132973878.998890   -56337196.220541  28.4705834   7.5259259   3.3405390    -0.000001637664     0.000005188027     0.000002198014
2041-08-01T01:44:35.260059    50161737.137234  -130574167.655840   -55276440.667334  27.9492189   9.0172962   3.9721393    -0.000001956541     0.000005093318     0.000002156170
2041-08-04T10:18:29.140508    58181261.143967  -127746123.337224   -54034357.592138  27.3362806  10.4788062   4.5905910    -0.000002268970     0.000004982174     0.000002107369
2041-08-07T18:52:23.020958    66009972.505274  -124499093.192385   -52615051.149603  26.6337806  11.9057405   5.1938987    -0.000002573974     0.000004854956     0.000002051769
2041-08-11T03:26:16.901408    73622220.580779  -120843775.472519   -51023196.942092  25.8440114  13.2934950   5.7801159    -0.000002870599     0.000004712071     0.000001989549
2041-08-14T12:11:41.630511    81010309.597071  -116782073.272214   -49259642.149566  24.9673565  14.6407362   6.3486776    -0.000003158590     0.000004553578     0.000001920734
2041-08-17T20:57:06.359614    88131503.997591  -112335602.790200   -47333789.176814  24.0084450  15.9397374   6.8963210    -0.000003436323     0.000004380299     0.000001845682
2041-08-21T05:42:31.088717    94962336.135042  -107519006.144325   -45251979.904957  22.9703876  17.1862783   7.4212668    -0.000003702921     0.000004192779     0.000001764630
2041-08-24T14:27:55.817820   101480278.307100  -102348128.225248   -43021063.033707  21.8565448  18.3763032   7.9218070    -0.000003957540     0.000003991606     0.000001677831
2041-08-27T23:14:12.942214   107664899.031213   -96838946.091589   -40647933.132798  20.6702977  19.5061311   8.3963930    -0.000004199413     0.000003777369     0.000001585539
2041-08-31T08:00:30.066607   113494549.252106   -91010469.418804   -38140780.320616  19.4156732  20.5718498   8.8433810    -0.000004427722     0.000003550770     0.000001488058
2041-09-03T16:46:47.191001   118949930.749932   -84881852.639075   -35507844.682829  18.0967232  21.5699666   9.2613058    -0.000004641733     0.000003312515     0.000001385691
2041-09-07T01:33:04.315395   124012952.859975   -78473235.091840   -32757779.160774  16.7177069  22.4971994   9.6487929    -0.000004840754     0.000003063348     0.000001278758
2041-09-10T10:27:32.193002   128674292.736111   -71794219.248752   -29894712.929316  15.2806127  23.3518627  10.0051353    -0.000005024432     0.000002803597     0.000001167399
2041-09-13T19:22:00.070609   132909490.157255   -64877420.879890   -26932635.624573  13.7923784  24.1294859  10.3284661    -0.000005191811     0.000002534487     0.000001052142
2041-09-17T04:16:27.948217   136704349.579248   -57745664.525290   -23881322.803061  12.2578340  24.8274653  10.6177021    -0.000005342333     0.000002256863     0.000000933347
